ORBCOMM FM20            
1 25416U 98046D   25019.75542342  .00002507  00000+0  89165-3 0  9999
2 25416  44.9924 163.9313 0001877 210.7846 149.2891 14.36626628382910
ORBCOMM FM16            
1 25417U 98046E   25019.91713584  .00004133  00000+0  13969-2 0  9991
2 25417  44.9922 156.5707 0005283 250.9324 109.0952 14.38094021382905
ORBCOMM FM15            
1 25418U 98046F   25019.71913207  .00003237  00000+0  11116-2 0  9990
2 25418  44.9955 162.2275 0004716 249.5639 110.4703 14.37770167382876
ORBCOMM FM14            
1 25419U 98046G   25019.70221699  .00003226  00000+0  11013-2 0  9991
2 25419  44.9943 160.9423 0003970 236.8911 123.1557 14.38072259382839
ORBCOMM FM13            
1 25420U 98046H   25019.76447339  .00002937  00000+0  10287-2 0  9990
2 25420  44.9956 167.2644 0005828 238.5228 121.5050 14.36995760381887
ORBCOMM FM21            
1 25475U 98053A   25019.67146311  .00001903  00000+0  68658-3 0  9992
2 25475  45.0075 252.5376 0000699 159.6149 200.4726 14.36773270375887
ORBCOMM FM22            
1 25476U 98053B   25019.94694498  .00002430  00000+0  84870-3 0  9997
2 25476  45.0057 247.1926 0002640 182.2324 177.8513 14.37631756375934
ORBCOMM FM23            
1 25477U 98053C   25019.89667820  .00002006  00000+0  71951-3 0  9996
2 25477  45.0076 253.7711 0001659 175.8997 184.1864 14.36892339376064
